[
  {
    "COMMENT": "GENERATED VIA SPACETRACK.ORG API",
    "ORIGINATOR": "18 SPCS",
    "NORAD_CAT_ID": "33105",
    "OBJECT_NAME": "JASON 2",
    "OBJECT_TYPE": "PAYLOAD",
    "CLASSIFICATION_TYPE": "U",
    "INTLDES": "08032A",
    "EPOCH": "2023-05-08 20:33:46",
    "EPOCH_MICROSECONDS": "823616",
    "MEAN_MOTION": "12.87659154",
    "ECCENTRICITY": "0.000808",
    "INCLINATION": "66.0397",
    "RA_OF_ASC_NODE": "278.1407",
    "ARG_OF_PERICENTER": "271.0717",
    "MEAN_ANOMALY": "208.0739",
    "EPHEMERIS_TYPE": "0",
    "ELEMENT_SET_NO": "999",
    "REV_AT_EPOCH": "69752",
    "BSTAR": "0.0000029952",
    "MEAN_MOTION_DOT": "-0.00000061",
    "MEAN_MOTION_DDOT": "0",
    "FILE": "3904305",
    "TLE_LINE0": "0 JASON 2",
    "TLE_LINE1": "1 33105U 08032A   23128.85679194 -.00000061  00000-0  29952-5 0  9990",
    "TLE_LINE2": "2 33105  66.0397 278.1407 0008080 271.0717 208.0739 12.87659154697521",
    "OBJECT_ID": "2008-032A",
    "OBJECT_NUMBER": "33105",
    "SEMIMAJOR_AXIS": "7688.965",
    "PERIOD": "111.831",
    "APOGEE": "1317.043",
    "PERIGEE": "1304.618",
    "DECAYED": "0"
  },
  {
    "COMMENT": "GENERATED VIA SPACETRACK.ORG API",
    "ORIGINATOR": "18 SPCS",
    "NORAD_CAT_ID": "33105",
    "OBJECT_NAME": "JASON 2",
    "OBJECT_TYPE": "PAYLOAD",
    "CLASSIFICATION_TYPE": "U",
    "INTLDES": "08032A",
    "EPOCH": "2023-05-09 13:06:38",
    "EPOCH_MICROSECONDS": "724192",
    "MEAN_MOTION": "12.87659135",
    "ECCENTRICITY": "0.0008088",
    "INCLINATION": "66.0398",
    "RA_OF_ASC_NODE": "276.6909",
    "ARG_OF_PERICENTER": "270.9958",
    "MEAN_ANOMALY": "164.0134",
    "EPHEMERIS_TYPE": "0",
    "ELEMENT_SET_NO": "999",
    "REV_AT_EPOCH": "69761",
    "BSTAR": "0.00001331",
    "MEAN_MOTION_DOT": "-0.00000059",
    "MEAN_MOTION_DDOT": "0",
    "FILE": "3904553",
    "TLE_LINE0": "0 JASON 2",
    "TLE_LINE1": "1 33105U 08032A   23129.54628153 -.00000059  00000-0  13310-4 0  9993",
    "TLE_LINE2": "2 33105  66.0398 276.6909 0008088 270.9958 164.0134 12.87659135697614",
    "OBJECT_ID": "2008-032A",
    "OBJECT_NUMBER": "33105",
    "SEMIMAJOR_AXIS": "7688.965",
    "PERIOD": "111.831",
    "APOGEE": "1317.049",
    "PERIGEE": "1304.611",
    "DECAYED": "0"
  },
  {
    "COMMENT": "GENERATED VIA SPACETRACK.ORG API",
    "ORIGINATOR": "18 SPCS",
    "NORAD_CAT_ID": "33105",
    "OBJECT_NAME": "JASON 2",
    "OBJECT_TYPE": "PAYLOAD",
    "CLASSIFICATION_TYPE": "U",
    "INTLDES": "08032A",
    "EPOCH": "2023-05-10 13:18:09",
    "EPOCH_MICROSECONDS": "645120",
    "MEAN_MOTION": "12.87659059",
    "ECCENTRICITY": "0.0008102",
    "INCLINATION": "66.0387",
    "RA_OF_ASC_NODE": "274.5715",
    "ARG_OF_PERICENTER": "270.9615",
    "MEAN_ANOMALY": "156.2289",
    "EPHEMERIS_TYPE": "0",
    "ELEMENT_SET_NO": "999",
    "REV_AT_EPOCH": "69774",
    "BSTAR": "-0.000024353",
    "MEAN_MOTION_DOT": "-0.00000068",
    "MEAN_MOTION_DDOT": "0",
    "FILE": "3904555",
    "TLE_LINE0": "0 JASON 2",
    "TLE_LINE1": "1 33105U 08032A   23130.55427830 -.00000068  00000-0 -24353-4 0  9995",
    "TLE_LINE2": "2 33105  66.0387 274.5715 0008102 270.9615 156.2289 12.87659059697744",
    "OBJECT_ID": "2008-032A",
    "OBJECT_NUMBER": "33105",
    "SEMIMAJOR_AXIS": "7688.966",
    "PERIOD": "111.831",
    "APOGEE": "1317.060",
    "PERIGEE": "1304.601",
    "DECAYED": "0"
  },
  {
    "COMMENT": "GENERATED VIA SPACETRACK.ORG API",
    "ORIGINATOR": "18 SPCS",
    "NORAD_CAT_ID": "33105",
    "OBJECT_NAME": "JASON 2",
    "OBJECT_TYPE": "PAYLOAD",
    "CLASSIFICATION_TYPE": "U",
    "INTLDES": "08032A",
    "EPOCH": "2023-05-10 19:05:46",
    "EPOCH_MICROSECONDS": "165344",
    "MEAN_MOTION": "12.87659137",
    "ECCENTRICITY": "0.0008104",
    "INCLINATION": "66.0398",
    "RA_OF_ASC_NODE": "274.0637",
    "ARG_OF_PERICENTER": "270.9725",
    "MEAN_ANOMALY": "195.1105",
    "EPHEMERIS_TYPE": "0",
    "ELEMENT_SET_NO": "999",
    "REV_AT_EPOCH": "69777",
    "BSTAR": "0.000073254",
    "MEAN_MOTION_DOT": "-0.00000044",
    "MEAN_MOTION_DDOT": "0",
    "FILE": "3904830",
    "TLE_LINE0": "0 JASON 2",
    "TLE_LINE1": "1 33105U 08032A   23130.79567321 -.00000044  00000-0  73254-4 0  9998",
    "TLE_LINE2": "2 33105  66.0398 274.0637 0008104 270.9725 195.1105 12.87659137697777",
    "OBJECT_ID": "2008-032A",
    "OBJECT_NUMBER": "33105",
    "SEMIMAJOR_AXIS": "7688.965",
    "PERIOD": "111.831",
    "APOGEE": "1317.061",
    "PERIGEE": "1304.599",
    "DECAYED": "0"
  },
  {
    "COMMENT": "GENERATED VIA SPACETRACK.ORG API",
    "ORIGINATOR": "18 SPCS",
    "NORAD_CAT_ID": "33105",
    "OBJECT_NAME": "JASON 2",
    "OBJECT_TYPE": "PAYLOAD",
    "CLASSIFICATION_TYPE": "U",
    "INTLDES": "08032A",
    "EPOCH": "2023-05-11 11:38:18",
    "EPOCH_MICROSECONDS": "200832",
    "MEAN_MOTION": "12.87659133",
    "ECCENTRICITY": "0.0008106",
    "INCLINATION": "66.0399",
    "RA_OF_ASC_NODE": "272.6143",
    "ARG_OF_PERICENTER": "270.9228",
    "MEAN_ANOMALY": "149.9583",
    "EPHEMERIS_TYPE": "0",
    "ELEMENT_SET_NO": "999",
    "REV_AT_EPOCH": "69786",
    "BSTAR": "0.000049225",
    "MEAN_MOTION_DOT": "-0.0000005",
    "MEAN_MOTION_DDOT": "0",
    "FILE": "3905210",
    "TLE_LINE0": "0 JASON 2",
    "TLE_LINE1": "1 33105U 08032A   23131.48493288 -.00000050  00000-0  49225-4 0  9993",
    "TLE_LINE2": "2 33105  66.0399 272.6143 0008106 270.9228 149.9583 12.87659133697867",
    "OBJECT_ID": "2008-032A",
    "OBJECT_NUMBER": "33105",
    "SEMIMAJOR_AXIS": "7688.965",
    "PERIOD": "111.831",
    "APOGEE": "1317.063",
    "PERIGEE": "1304.598",
    "DECAYED": "0"
  },
  {
    "COMMENT": "GENERATED VIA SPACETRACK.ORG API",
    "ORIGINATOR": "18 SPCS",
    "NORAD_CAT_ID": "33105",
    "OBJECT_NAME": "JASON 2",
    "OBJECT_TYPE": "PAYLOAD",
    "CLASSIFICATION_TYPE": "U",
    "INTLDES": "08032A",
    "EPOCH": "2023-05-11 17:24:03",
    "EPOCH_MICROSECONDS": "875904",
    "MEAN_MOTION": "12.87659133",
    "ECCENTRICITY": "0.0008111",
    "INCLINATION": "66.0399",
    "RA_OF_ASC_NODE": "272.1095",
    "ARG_OF_PERICENTER": "270.9099",
    "MEAN_ANOMALY": "182.9179",
    "EPHEMERIS_TYPE": "0",
    "ELEMENT_SET_NO": "999",
    "REV_AT_EPOCH": "69789",
    "BSTAR": "0.000055266",
    "MEAN_MOTION_DOT": "-0.00000048",
    "MEAN_MOTION_DDOT": "0",
    "FILE": "3905576",
    "TLE_LINE0": "0 JASON 2",
    "TLE_LINE1": "1 33105U 08032A   23131.72504486 -.00000048  00000-0  55266-4 0  9992",
    "TLE_LINE2": "2 33105  66.0399 272.1095 0008111 270.9099 182.9179 12.87659133697891",
    "OBJECT_ID": "2008-032A",
    "OBJECT_NUMBER": "33105",
    "SEMIMAJOR_AXIS": "7688.965",
    "PERIOD": "111.831",
    "APOGEE": "1317.067",
    "PERIGEE": "1304.594",
    "DECAYED": "0"
  },
  {
    "COMMENT": "GENERATED VIA SPACETRACK.ORG API",
    "ORIGINATOR": "18 SPCS",
    "NORAD_CAT_ID": "33105",
    "OBJECT_NAME": "JASON 2",
    "OBJECT_TYPE": "PAYLOAD",
    "CLASSIFICATION_TYPE": "U",
    "INTLDES": "08032A",
    "EPOCH": "2023-05-12 03:08:06",
    "EPOCH_MICROSECONDS": "449280",
    "MEAN_MOTION": "12.87659049",
    "ECCENTRICITY": "0.0008111",
    "INCLINATION": "66.0387",
    "RA_OF_ASC_NODE": "271.2569",
    "ARG_OF_PERICENTER": "270.9483",
    "MEAN_ANOMALY": "262.8152",
    "EPHEMERIS_TYPE": "0",
    "ELEMENT_SET_NO": "999",
    "REV_AT_EPOCH": "69803",
    "BSTAR": "-0.000031359",
    "MEAN_MOTION_DOT": "-0.0000007",
    "MEAN_MOTION_DDOT": "0",
    "FILE": "3905627",
    "TLE_LINE0": "0 JASON 2",
    "TLE_LINE1": "1 33105U 08032A   23132.13063020 -.00000070  00000-0 -31359-4 0  9995",
    "TLE_LINE2": "2 33105  66.0387 271.2569 0008111 270.9483 262.8152 12.87659049698033",
    "OBJECT_ID": "2008-032A",
    "OBJECT_NUMBER": "33105",
    "SEMIMAJOR_AXIS": "7688.966",
    "PERIOD": "111.831",
    "APOGEE": "1317.067",
    "PERIGEE": "1304.594",
    "DECAYED": "0"
  },
  {
    "COMMENT": "GENERATED VIA SPACETRACK.ORG API",
    "ORIGINATOR": "18 SPCS",
    "NORAD_CAT_ID": "33105",
    "OBJECT_NAME": "JASON 2",
    "OBJECT_TYPE": "PAYLOAD",
    "CLASSIFICATION_TYPE": "U",
    "INTLDES": "08032A",
    "EPOCH": "2023-05-12 03:08:06",
    "EPOCH_MICROSECONDS": "449280",
    "MEAN_MOTION": "12.87659049",
    "ECCENTRICITY": "0.0008111",
    "INCLINATION": "66.0387",
    "RA_OF_ASC_NODE": "271.2569",
    "ARG_OF_PERICENTER": "270.9483",
    "MEAN_ANOMALY": "262.8152",
    "EPHEMERIS_TYPE": "0",
    "ELEMENT_SET_NO": "999",
    "REV_AT_EPOCH": "69794",
    "BSTAR": "-0.000031359",
    "MEAN_MOTION_DOT": "-0.0000007",
    "MEAN_MOTION_DDOT": "0",
    "FILE": "3905921",
    "TLE_LINE0": "0 JASON 2",
    "TLE_LINE1": "1 33105U 08032A   23132.13063020 -.00000070  00000-0 -31359-4 0  9995",
    "TLE_LINE2": "2 33105  66.0387 271.2569 0008111 270.9483 262.8152 12.87659049697942",
    "OBJECT_ID": "2008-032A",
    "OBJECT_NUMBER": "33105",
    "SEMIMAJOR_AXIS": "7688.966",
    "PERIOD": "111.831",
    "APOGEE": "1317.067",
    "PERIGEE": "1304.594",
    "DECAYED": "0"
  },
  {
    "COMMENT": "GENERATED VIA SPACETRACK.ORG API",
    "ORIGINATOR": "18 SPCS",
    "NORAD_CAT_ID": "33105",
    "OBJECT_NAME": "JASON 2",
    "OBJECT_TYPE": "PAYLOAD",
    "CLASSIFICATION_TYPE": "U",
    "INTLDES": "08032A",
    "EPOCH": "2023-05-12 19:34:25",
    "EPOCH_MICROSECONDS": "953024",
    "MEAN_MOTION": "12.8765905",
    "ECCENTRICITY": "0.0008118",
    "INCLINATION": "66.0388",
    "RA_OF_ASC_NODE": "269.8167",
    "ARG_OF_PERICENTER": "270.887",
    "MEAN_ANOMALY": "197.6893",
    "EPHEMERIS_TYPE": "0",
    "ELEMENT_SET_NO": "999",
    "REV_AT_EPOCH": "69803",
    "BSTAR": "-0.000028286",
    "MEAN_MOTION_DOT": "-0.00000069",
    "MEAN_MOTION_DDOT": "0",
    "FILE": "3906381",
    "TLE_LINE0": "0 JASON 2",
    "TLE_LINE1": "1 33105U 08032A   23132.81557816 -.00000069  00000-0 -28286-4 0  9994",
    "TLE_LINE2": "2 33105  66.0388 269.8167 0008118 270.8870 197.6893 12.87659050698036",
    "OBJECT_ID": "2008-032A",
    "OBJECT_NUMBER": "33105",
    "SEMIMAJOR_AXIS": "7688.966",
    "PERIOD": "111.831",
    "APOGEE": "1317.073",
    "PERIGEE": "1304.589",
    "DECAYED": "0"
  }
]